SL-8 R/B                
1 15483U 85006B   26193.61893137  .00000119  00000+0  47996-4 0  9998
2 15483  74.0451  31.2623 0019286 274.7986 141.3732 14.37844362171989
SL-12 R/B(2)            
1 15772U 85042D   26193.57161035 -.00000052  00000+0 -20100-5 0  9996
2 15772  71.1065 183.8844 0037235 290.0323 208.3338 14.22010609132142
SL-14 R/B               
1 15945U 85069B   26193.20955998  .00000231  00000+0  23230-4 0  9999
2 15945  82.5265 267.8343 0019868 136.6030 223.6755 14.86533917191332
SL-16 R/B               
1 16182U 85097B   26193.55562426 -.00000033  00000+0  75767-5 0  9996
2 16182  71.0009 237.6702 0005535  56.9973  49.6357 14.16612177104916
SL-14 R/B               
1 16496U 86006B   26193.28650598  .00000246  00000+0  23314-4 0  9998
2 16496  82.5282 142.4943 0075255 218.6317 140.9503 14.86966950167723
COSMOS 1743             
1 16719U 86034A   26193.28883244  .00036827  00000+0  31357-3 0  9992
2 16719  82.5282 301.9968 0005295 185.6738 174.4465 15.69378338199720
SL-14 R/B               
1 16792U 86046B   26193.40951422  .00000243  00000+0  25025-4 0  9993
2 16792  82.4837 322.3423 0023282 172.0974 188.0614 14.85689268144920
SL-14 R/B               
1 16882U 86055B   26193.60428194  .00000215  00000+0  21898-4 0  9993
2 16882  82.5201   9.2325 0017311 279.6849 148.7272 14.85739223137910
AJISAI (EGS)            
1 16908U 86061A   26193.59663374 -.00000082  00000+0  10924-3 0  9998
2 16908  50.0099  69.2621 0011091 245.2336 201.6364 12.44516739483551
SL-14 R/B               
1 17567U 87024B   26193.46490378  .00000253  00000+0  25989-4 0  9995
2 17567  82.5295 335.4899 0017589 203.0412 157.0018 14.86230506106668
COSMOS 1833             
1 17589U 87027A   26192.81375237  .00000118  00000+0  88850-4 0  9992
2 17589  70.9211  65.1077 0024008  14.1554 346.0235 14.13065553 27850
SL-16 R/B               
1 17590U 87027B   26193.55581436 -.00000078  00000+0 -14913-4 0  9992
2 17590  71.0030  13.3682 0007140 284.0988  75.9342 14.17173198 33030
SL-14 R/B               
1 17912U 87038B   26193.38940641  .00000234  00000+0  24173-4 0  9991
2 17912  82.5010 179.3326 0020751 110.8174 249.5268 14.85460355 97740
COSMOS 1844             
1 17973U 87041A   26193.28120939  .00000161  00000+0  10831-3 0  9995
2 17973  70.8996 131.3759 0031506 199.4239 160.5685 14.14579576 21204
SL-14 R/B               
1 18153U 87055B   26193.54632184  .00000195  00000+0  19669-4 0  9996
2 18153  82.4973 231.3228 0019592 324.3332  35.6574 14.85726051 88476
COSMOS 1867             
1 18187U 87060A   26193.56258181 -.00000071  00000+0  10894-4 0  9997
2 18187  65.0120 316.9926 0017084 282.0101  77.9068 14.31518301 37814
SL-14 R/B               
1 18749U 88001B   26193.14602514  .00000214  00000+0  21870-4 0  9998
2 18749  82.5124  78.2920 0017902 181.8420 178.2733 14.85625592 60503
COSMOS 1933             
1 18958U 88020A   26193.33684236  .00001861  00000+0  87735-4 0  9994
2 18958  82.5139 127.5285 0005750 114.7765 245.4069 15.18878502 69144
SL-3 R/B                
1 19046U 88032B   26193.57278079  .00002322  00000+0  10698-3 0  9992
2 19046  97.5268 176.5926 0026262 154.5125 205.7412 15.21019587 71082
SL-16 R/B               
1 19120U 88039B   26193.34628149 -.00000189  00000+0 -66560-4 0  9995
2 19120  71.0137 164.9586 0020753 154.0706 206.1464 14.19631421976077
COSMOS 1953             
1 19210U 88050A   26193.58826975  .00004573  00000+0  15455-3 0  9996
2 19210  82.5062  32.4107 0011700  48.3576 311.8664 15.30314827 56876
SL-8 R/B                
1 19257U 88053B   26193.60904966  .00000118  00000+0  46550-4 0  9992
2 19257  74.0460 242.1964 0019643  28.6362 132.6191 14.38977367994566
COSMOS 1975             
1 19573U 88093A   26193.47322231  .00003711  00000+0  12777-3 0  9996
2 19573  82.5192 352.2587 0012554  90.8294 269.4385 15.29641140 38477
SL-14 R/B               
1 19574U 88093B   26193.25274431  .00000203  00000+0  20544-4 0  9996
2 19574  82.5317 285.1141 0020270 350.2743  39.0026 14.85758970 19511
SL-16 R/B               
1 19650U 88102B   26193.57485962 -.00000216  00000+0 -85083-4 0  9995
2 19650  70.9981 248.7209 0014457 189.6824 170.4023 14.16167252944579
INTERCOSMOS 24          
1 20261U 89080A   26193.58928039  .00000213  00000+0  58283-4 0  9996
2 20261  82.6047  23.1112 1187344   2.9940 357.7488 12.59691122682525
SL-14 R/B               
1 20262U 89080C   26193.12236120  .00000055  00000+0  15957-4 0  9995
2 20262  82.5937  93.2868 1228593 260.3236  85.7278 12.50578093675708
DELTA 1 R/B             
1 20323U 89089B   26193.53217399  .00000150  00000+0  45484-4 0  9998
2 20323  97.0634  21.0344 0070648  88.2077 272.7211 14.50746826913831
ARIANE 40 R/B           
1 20443U 90005H   26193.12987991  .00000109  00000+0  47928-4 0  9997
2 20443  98.2947 249.9687 0010061 183.0738 177.0390 14.39939873910718
DELTA 2 R/B(1)          
1 20453U 90008B   26192.97565387  .00079208  00000+0  49290-3 0  9993
2 20453  35.6004  69.3143 0060492 345.6004  14.3014 15.73093935945605
